start=new Date('2022-08-18T00:00:00.000Z').valueOf();
sats=[{"MEAN_MOTION_DDOT":"0.0000000000000","LAUNCH_DATE":"2022-07-22","SEMIMAJOR_AXIS":"6791.213","MEAN_MOTION":"15.51249676","SITE":"AFWTR","COUNTRY_CODE":"US","OBJECT_TYPE":"PAYLOAD","TIME_SYSTEM":"UTC","APOAPSIS":"414.267","CLASSIFICATION_TYPE":"U","ELEMENT_SET_NO":"999","EPOCH":"2022-08-17T16:00:00.999936","TLE_LINE2":"2 53192  97.6551 289.2453 0001750 119.1920 337.3959 15.51249676  4597","EPHEMERIS_TYPE":"0","CENTER_NAME":"EARTH","ECCENTRICITY":"0.00017500","MEAN_MOTION_DOT":"-0.00891524","OBJECT_ID":"2022-084D","GP_ID":"210383462","INCLINATION":"97.6551","OBJECT_NAME":"STARLINK-4375","BSTAR":"-0.01675600000000","NORAD_CAT_ID":"53192","REF_FRAME":"TEME","MEAN_ANOMALY":"337.3959","TLE_LINE1":"1 53192U 22084D   22229.66667824 -.00891524  00000-0 -16756-1 0  9995","PERIAPSIS":"411.890","ARG_OF_PERICENTER":"119.1920","PERIOD":"92.828","FILE":"3538753","REV_AT_EPOCH":"459","MEAN_ELEMENT_THEORY":"SGP4","RCS_SIZE":"LARGE","RA_OF_ASC_NODE":"289.2453","DECAY_DATE":null},{"OBJECT_TYPE":"PAYLOAD","TIME_SYSTEM":"UTC","APOAPSIS":"414.288","SITE":"AFWTR","COUNTRY_CODE":"US","CENTER_NAME":"EARTH","EPHEMERIS_TYPE":"0","CLASSIFICATION_TYPE":"U","ELEMENT_SET_NO":"999","TLE_LINE2":"2 53193  97.6542 289.1531 0001589 111.4965 237.2125 15.51204796  1301","EPOCH":"2022-08-17T14:00:01.000224","LAUNCH_DATE":"2022-07-22","MEAN_MOTION_DDOT":"0.0000000000000","MEAN_MOTION":"15.51204796","SEMIMAJOR_AXIS":"6791.344","REV_AT_EPOCH":"130","FILE":"3538809","MEAN_ANOMALY":"237.2125","ARG_OF_PERICENTER":"111.4965","PERIAPSIS":"412.130","PERIOD":"92.831","TLE_LINE1":"1 53193U 22084E   22229.58334491  .00083329  00000-0  14137-2 0  9994","DECAY_DATE":null,"RCS_SIZE":"LARGE","MEAN_ELEMENT_THEORY":"SGP4","RA_OF_ASC_NODE":"289.1531","OBJECT_ID":"2022-084E","MEAN_MOTION_DOT":"0.00083329","INCLINATION":"97.6542","GP_ID":"210409322","ECCENTRICITY":"0.00015890","NORAD_CAT_ID":"53193","REF_FRAME":"TEME","BSTAR":"0.00141370000000","OBJECT_NAME":"STARLINK-4351"},{"MEAN_MOTION_DDOT":"0.0000000000000","LAUNCH_DATE":"2022-07-22","SEMIMAJOR_AXIS":"6792.243","MEAN_MOTION":"15.50896932","SITE":"AFWTR","COUNTRY_CODE":"US","OBJECT_TYPE":"PAYLOAD","TIME_SYSTEM":"UTC","APOAPSIS":"415.275","CLASSIFICATION_TYPE":"U","ELEMENT_SET_NO":"999","TLE_LINE2":"2 53194  97.6557 289.2480 0001718  81.0622  13.1632 15.50896932  4594","EPOCH":"2022-08-17T16:00:00.999936","CENTER_NAME":"EARTH","EPHEMERIS_TYPE":"0","ECCENTRICITY":"0.00017180","MEAN_MOTION_DOT":"-0.01223973","OBJECT_ID":"2022-084F","GP_ID":"210383456","INCLINATION":"97.6557","OBJECT_NAME":"STARLINK-4382","BSTAR":"-0.02327800000000","NORAD_CAT_ID":"53194","REF_FRAME":"TEME","MEAN_ANOMALY":"13.1632","TLE_LINE1":"1 53194U 22084F   22229.66667824 -.01223973  00000-0 -23278-1 0  9992","PERIOD":"92.849","PERIAPSIS":"412.941","ARG_OF_PERICENTER":"81.0622","FILE":"3538753","REV_AT_EPOCH":"459","MEAN_ELEMENT_THEORY":"SGP4","RCS_SIZE":"LARGE","RA_OF_ASC_NODE":"289.2480","DECAY_DATE":null},{"SEMIMAJOR_AXIS":"6791.217","MEAN_MOTION":"15.51248364","MEAN_MOTION_DDOT":"0.0000000000000","LAUNCH_DATE":"2022-07-22","ELEMENT_SET_NO":"999","CLASSIFICATION_TYPE":"U","TLE_LINE2":"2 53195  97.6552 289.2451 0002019 118.0781 339.2292 15.51248364  4595","EPOCH":"2022-08-17T16:00:00.999936","EPHEMERIS_TYPE":"0","CENTER_NAME":"EARTH","SITE":"AFWTR","COUNTRY_CODE":"US","OBJECT_TYPE":"PAYLOAD","TIME_SYSTEM":"UTC","APOAPSIS":"414.453","BSTAR":"-0.01650400000000","OBJECT_NAME":"STARLINK-4404","NORAD_CAT_ID":"53195","REF_FRAME":"TEME","ECCENTRICITY":"0.00020190","OBJECT_ID":"2022-084G","MEAN_MOTION_DOT":"-0.00879309","GP_ID":"210382960","INCLINATION":"97.6552","RCS_SIZE":"LARGE","MEAN_ELEMENT_THEORY":"SGP4","RA_OF_ASC_NODE":"289.2451","DECAY_DATE":null,"MEAN_ANOMALY":"339.2292","PERIOD":"92.828","PERIAPSIS":"411.711","ARG_OF_PERICENTER":"118.0781","TLE_LINE1":"1 53195U 22084G   22229.66667824 -.00879309  00000-0 -16504-1 0  9996","REV_AT_EPOCH":"459","FILE":"3538753"},{"MEAN_MOTION_DDOT":"0.0000000000000","LAUNCH_DATE":"2022-07-22","SEMIMAJOR_AXIS":"6791.446","MEAN_MOTION":"15.51170019","COUNTRY_CODE":"US","SITE":"AFWTR","APOAPSIS":"414.497","TIME_SYSTEM":"UTC","OBJECT_TYPE":"PAYLOAD","TLE_LINE2":"2 53196  97.6553 289.2466 0001747 106.8916 348.9386 15.51170019  4597","EPOCH":"2022-08-17T16:00:00.999936","CLASSIFICATION_TYPE":"U","ELEMENT_SET_NO":"999","CENTER_NAME":"EARTH","EPHEMERIS_TYPE":"0","ECCENTRICITY":"0.00017470","INCLINATION":"97.6553","GP_ID":"210383455","OBJECT_ID":"2022-084H","MEAN_MOTION_DOT":"-0.01023679","OBJECT_NAME":"STARLINK-4407","BSTAR":"-0.01925000000000","REF_FRAME":"TEME","NORAD_CAT_ID":"53196","TLE_LINE1":"1 53196U 22084H   22229.66667824 -.01023679  00000-0 -19250-1 0  9990","ARG_OF_PERICENTER":"106.8916","PERIAPSIS":"412.124","PERIOD":"92.833","MEAN_ANOMALY":"348.9386","FILE":"3538753","REV_AT_EPOCH":"459","RA_OF_ASC_NODE":"289.2466","MEAN_ELEMENT_THEORY":"SGP4","RCS_SIZE":"LARGE","DECAY_DATE":null},{"INCLINATION":"97.6550","GP_ID":"210383453","MEAN_MOTION_DOT":"-0.00675156","OBJECT_ID":"2022-084J","ECCENTRICITY":"0.00015980","REF_FRAME":"TEME","NORAD_CAT_ID":"53197","OBJECT_NAME":"STARLINK-4403","BSTAR":"-0.01245900000000","FILE":"3538753","REV_AT_EPOCH":"459","TLE_LINE1":"1 53197U 22084J   22229.66667824 -.00675156  00000-0 -12459-1 0  9997","PERIOD":"92.815","PERIAPSIS":"411.351","ARG_OF_PERICENTER":"111.9398","MEAN_ANOMALY":"347.5833","DECAY_DATE":null,"RA_OF_ASC_NODE":"289.2440","MEAN_ELEMENT_THEORY":"SGP4","RCS_SIZE":"LARGE","LAUNCH_DATE":"2022-07-22","MEAN_MOTION_DDOT":"0.0000000000000","MEAN_MOTION":"15.51469764","SEMIMAJOR_AXIS":"6790.571","TIME_SYSTEM":"UTC","APOAPSIS":"413.521","OBJECT_TYPE":"PAYLOAD","COUNTRY_CODE":"US","SITE":"AFWTR","EPHEMERIS_TYPE":"0","CENTER_NAME":"EARTH","EPOCH":"2022-08-17T16:00:00.999936","TLE_LINE2":"2 53197  97.6550 289.2440 0001598 111.9398 347.5833 15.51469764  4592","ELEMENT_SET_NO":"999","CLASSIFICATION_TYPE":"U"},{"SEMIMAJOR_AXIS":"6790.432","MEAN_MOTION":"15.51517269","MEAN_MOTION_DDOT":"0.0000000000000","LAUNCH_DATE":"2022-07-22","CLASSIFICATION_TYPE":"U","ELEMENT_SET_NO":"999","EPOCH":"2022-08-17T16:00:00.999936","TLE_LINE2":"2 53198  97.6553 289.2442 0001755 105.4302 352.3755 15.51517269  4597","EPHEMERIS_TYPE":"0","CENTER_NAME":"EARTH","SITE":"AFWTR","COUNTRY_CODE":"US","OBJECT_TYPE":"PAYLOAD","APOAPSIS":"413.489","TIME_SYSTEM":"UTC","BSTAR":"-0.01026500000000","OBJECT_NAME":"STARLINK-4385","NORAD_CAT_ID":"53198","REF_FRAME":"TEME","ECCENTRICITY":"0.00017550","OBJECT_ID":"2022-084K","MEAN_MOTION_DOT":"-0.00564998","GP_ID":"210383461","INCLINATION":"97.6553","RCS_SIZE":"LARGE","MEAN_ELEMENT_THEORY":"SGP4","RA_OF_ASC_NODE":"289.2442","DECAY_DATE":null,"MEAN_ANOMALY":"352.3755","PERIAPSIS":"411.106","PERIOD":"92.812","ARG_OF_PERICENTER":"105.4302","TLE_LINE1":"1 53198U 22084K   22229.66667824 -.00564998  00000-0 -10265-1 0  9992","REV_AT_EPOCH":"459","FILE":"3538753"},{"EPOCH":"2022-08-17T16:00:00.999936","TLE_LINE2":"2 53199  97.6560 289.2449 0001560 107.1895 353.8183 15.51334739  4593","ELEMENT_SET_NO":"999","CLASSIFICATION_TYPE":"U","EPHEMERIS_TYPE":"0","CENTER_NAME":"EARTH","COUNTRY_CODE":"US","SITE":"AFWTR","APOAPSIS":"413.889","TIME_SYSTEM":"UTC","OBJECT_TYPE":"PAYLOAD","SEMIMAJOR_AXIS":"6790.965","MEAN_MOTION":"15.51334739","MEAN_MOTION_DDOT":"0.0000000000000","LAUNCH_DATE":"2022-07-22","RA_OF_ASC_NODE":"289.2449","RCS_SIZE":"LARGE","MEAN_ELEMENT_THEORY":"SGP4","DECAY_DATE":null,"ARG_OF_PERICENTER":"107.1895","PERIAPSIS":"411.771","PERIOD":"92.823","TLE_LINE1":"1 53199U 22084L   22229.66667824 -.00122616  00000-0 -21207-2 0  9999","MEAN_ANOMALY":"353.8183","REV_AT_EPOCH":"459","FILE":"3538753","BSTAR":"-0.00212070000000","OBJECT_NAME":"STARLINK-4395","REF_FRAME":"TEME","NORAD_CAT_ID":"53199","ECCENTRICITY":"0.00015600","INCLINATION":"97.6560","GP_ID":"210382954","MEAN_MOTION_DOT":"-0.00122616","OBJECT_ID":"2022-084L"},{"CENTER_NAME":"EARTH","EPHEMERIS_TYPE":"0","CLASSIFICATION_TYPE":"U","ELEMENT_SET_NO":"999","EPOCH":"2022-08-17T16:00:00.999936","TLE_LINE2":"2 53200  97.6551 289.2444 0001640 105.1994 353.6299 15.51491365  4593","OBJECT_TYPE":"PAYLOAD","TIME_SYSTEM":"UTC","APOAPSIS":"413.487","SITE":"AFWTR","COUNTRY_CODE":"US","MEAN_MOTION":"15.51491365","SEMIMAJOR_AXIS":"6790.508","LAUNCH_DATE":"2022-07-22","MEAN_MOTION_DDOT":"0.0000000000000","DECAY_DATE":null,"RCS_SIZE":"LARGE","MEAN_ELEMENT_THEORY":"SGP4","RA_OF_ASC_NODE":"289.2444","REV_AT_EPOCH":"459","FILE":"3538754","MEAN_ANOMALY":"353.6299","PERIOD":"92.814","PERIAPSIS":"411.259","ARG_OF_PERICENTER":"105.1994","TLE_LINE1":"1 53200U 22084M   22229.66667824 -.00812199  00000-0 -15005-1 0  9992","NORAD_CAT_ID":"53200","REF_FRAME":"TEME","BSTAR":"-0.01500500000000","OBJECT_NAME":"STARLINK-4417","OBJECT_ID":"2022-084M","MEAN_MOTION_DOT":"-0.00812199","GP_ID":"210382977","INCLINATION":"97.6551","ECCENTRICITY":"0.00016400"},{"CLASSIFICATION_TYPE":"U","ELEMENT_SET_NO":"999","TLE_LINE2":"2 53201  97.6549 289.2438 0001951 111.1580 351.3379 15.51235881  4590","EPOCH":"2022-08-17T16:00:00.999936","EPHEMERIS_TYPE":"0","CENTER_NAME":"EARTH","SITE":"AFWTR","COUNTRY_CODE":"US","OBJECT_TYPE":"PAYLOAD","TIME_SYSTEM":"UTC","APOAPSIS":"414.444","SEMIMAJOR_AXIS":"6791.254","MEAN_MOTION":"15.51235881","MEAN_MOTION_DDOT":"0.0000000000000","LAUNCH_DATE":"2022-07-22","MEAN_ELEMENT_THEORY":"SGP4","RCS_SIZE":"LARGE","RA_OF_ASC_NODE":"289.2438","DECAY_DATE":null,"MEAN_ANOMALY":"351.3379","TLE_LINE1":"1 53201U 22084N   22229.66667824 -.00002232  00000-0 -36454-4 0  9996","ARG_OF_PERICENTER":"111.1580","PERIAPSIS":"411.794","PERIOD":"92.829","FILE":"3538754","REV_AT_EPOCH":"459","OBJECT_NAME":"STARLINK-4405","BSTAR":"-0.00003645400000","NORAD_CAT_ID":"53201","REF_FRAME":"TEME","ECCENTRICITY":"0.00019510","OBJECT_ID":"2022-084N","MEAN_MOTION_DOT":"-0.00002232","INCLINATION":"97.6549","GP_ID":"210382968"}];
